CCSDS_OMM_VERS = 2.0
CREATION_DATE  = 
ORIGINATOR     = 

OBJECT_NAME    = ATLAS CENTAUR R/B
OBJECT_ID      = 1972-065B
CENTER_NAME    = EARTH
REF_FRAME      = TEME
TIME_SYSTEM    = UTC
MEAN_ELEMENT_THEORY = SGP/SGP4

EPOCH          = 2026-02-17T08:31:57.024768
MEAN_MOTION    = 14.77625374
ECCENTRICITY   = .0034016
INCLINATION    = 35.0017
RA_OF_ASC_NODE = 64.9115
ARG_OF_PERICENTER = 200.0912
MEAN_ANOMALY   = 159.8450

EPHEMERIS_TYPE = 0
CLASSIFICATION_TYPE = U
NORAD_CAT_ID   = 6155
ELEMENT_SET_NO = 999
REV_AT_EPOCH   = 83825
BSTAR          = .19588379E-3
MEAN_MOTION_DOT = .1415E-4
MEAN_MOTION_DDOT = 0

CCSDS_OMM_VERS = 2.0
CREATION_DATE  = 
ORIGINATOR     = 

OBJECT_NAME    = SL-8 R/B
OBJECT_ID      = 1975-112B
CENTER_NAME    = EARTH
REF_FRAME      = TEME
TIME_SYSTEM    = UTC
MEAN_ELEMENT_THEORY = SGP/SGP4

EPOCH          = 2026-02-17T11:16:40.351872
MEAN_MOTION    = 14.38192702
ECCENTRICITY   = .00150375
INCLINATION    = 74.0592
RA_OF_ASC_NODE = 56.1088
ARG_OF_PERICENTER = 156.9812
MEAN_ANOMALY   = 203.2019

EPHEMERIS_TYPE = 0
CLASSIFICATION_TYPE = U
NORAD_CAT_ID   = 8459
ELEMENT_SET_NO = 999
REV_AT_EPOCH   = 62896
BSTAR          = .66348992E-4
MEAN_MOTION_DOT = .176E-5
MEAN_MOTION_DDOT = 0

CCSDS_OMM_VERS = 2.0
CREATION_DATE  = 
ORIGINATOR     = 

OBJECT_NAME    = SL-3 R/B
OBJECT_ID      = 1977-057B
CENTER_NAME    = EARTH
REF_FRAME      = TEME
TIME_SYSTEM    = UTC
MEAN_ELEMENT_THEORY = SGP/SGP4

EPOCH          = 2026-02-17T18:33:11.186496
MEAN_MOTION    = 15.44897197
ECCENTRICITY   = .000734
INCLINATION    = 97.5737
RA_OF_ASC_NODE = 219.8303
ARG_OF_PERICENTER = 4.2173
MEAN_ANOMALY   = 355.9135

EPHEMERIS_TYPE = 0
CLASSIFICATION_TYPE = U
NORAD_CAT_ID   = 10114
ELEMENT_SET_NO = 999
REV_AT_EPOCH   = 66525
BSTAR          = .26663E-3
MEAN_MOTION_DOT = .12449E-3
MEAN_MOTION_DDOT = 0

CCSDS_OMM_VERS = 2.0
CREATION_DATE  = 
ORIGINATOR     = 

OBJECT_NAME    = SEASAT 1
OBJECT_ID      = 1978-064A
CENTER_NAME    = EARTH
REF_FRAME      = TEME
TIME_SYSTEM    = UTC
MEAN_ELEMENT_THEORY = SGP/SGP4

EPOCH          = 2026-02-17T15:26:44.777184
MEAN_MOTION    = 14.46143728
ECCENTRICITY   = .0001803
INCLINATION    = 108.0156
RA_OF_ASC_NODE = 83.4317
ARG_OF_PERICENTER = 292.2124
MEAN_ANOMALY   = 67.8830

EPHEMERIS_TYPE = 0
CLASSIFICATION_TYPE = U
NORAD_CAT_ID   = 10967
ELEMENT_SET_NO = 999
REV_AT_EPOCH   = 50361
BSTAR          = .94997E-4
MEAN_MOTION_DOT = .202E-5
MEAN_MOTION_DDOT = 0

CCSDS_OMM_VERS = 2.0
CREATION_DATE  = 
ORIGINATOR     = 

OBJECT_NAME    = SL-14 R/B
OBJECT_ID      = 1979-011B
CENTER_NAME    = EARTH
REF_FRAME      = TEME
TIME_SYSTEM    = UTC
MEAN_ELEMENT_THEORY = SGP/SGP4

EPOCH          = 2026-02-17T15:51:09.556128
MEAN_MOTION    = 14.91883405
ECCENTRICITY   = .001746
INCLINATION    = 82.5239
RA_OF_ASC_NODE = 115.5774
ARG_OF_PERICENTER = 121.9757
MEAN_ANOMALY   = 238.3163

EPHEMERIS_TYPE = 0
CLASSIFICATION_TYPE = U
NORAD_CAT_ID   = 11267
ELEMENT_SET_NO = 999
REV_AT_EPOCH   = 52579
BSTAR          = .49682E-4
MEAN_MOTION_DOT = .529E-5
MEAN_MOTION_DDOT = 0

CCSDS_OMM_VERS = 2.0
CREATION_DATE  = 
ORIGINATOR     = 

OBJECT_NAME    = SL-8 R/B
OBJECT_ID      = 1979-089B
CENTER_NAME    = EARTH
REF_FRAME      = TEME
TIME_SYSTEM    = UTC
MEAN_ELEMENT_THEORY = SGP/SGP4

EPOCH          = 2026-02-17T15:08:55.281696
MEAN_MOTION    = 14.42337983
ECCENTRICITY   = .0016827
INCLINATION    = 74.0691
RA_OF_ASC_NODE = 128.1747
ARG_OF_PERICENTER = 302.9818
MEAN_ANOMALY   = 56.9721

EPHEMERIS_TYPE = 0
CLASSIFICATION_TYPE = U
NORAD_CAT_ID   = 11574
ELEMENT_SET_NO = 999
REV_AT_EPOCH   = 43321
BSTAR          = .84141E-4
MEAN_MOTION_DOT = .252E-5
MEAN_MOTION_DDOT = 0

CCSDS_OMM_VERS = 2.0
CREATION_DATE  = 
ORIGINATOR     = 

OBJECT_NAME    = SL-14 R/B
OBJECT_ID      = 1980-005B
CENTER_NAME    = EARTH
REF_FRAME      = TEME
TIME_SYSTEM    = UTC
MEAN_ELEMENT_THEORY = SGP/SGP4

EPOCH          = 2026-02-17T17:27:36.066528
MEAN_MOTION    = 14.90904001
ECCENTRICITY   = .0014459
INCLINATION    = 82.5173
RA_OF_ASC_NODE = 326.1671
ARG_OF_PERICENTER = 226.3180
MEAN_ANOMALY   = 133.6842

EPHEMERIS_TYPE = 0
CLASSIFICATION_TYPE = U
NORAD_CAT_ID   = 11672
ELEMENT_SET_NO = 999
REV_AT_EPOCH   = 47351
BSTAR          = .57456E-4
MEAN_MOTION_DOT = .592E-5
MEAN_MOTION_DDOT = 0

CCSDS_OMM_VERS = 2.0
CREATION_DATE  = 
ORIGINATOR     = 

OBJECT_NAME    = SL-8 R/B
OBJECT_ID      = 1981-003B
CENTER_NAME    = EARTH
REF_FRAME      = TEME
TIME_SYSTEM    = UTC
MEAN_ELEMENT_THEORY = SGP/SGP4

EPOCH          = 2026-02-17T15:55:46.398144
MEAN_MOTION    = 15.10225754
ECCENTRICITY   = .0262551
INCLINATION    = 82.9400
RA_OF_ASC_NODE = 308.5304
ARG_OF_PERICENTER = 248.4013
MEAN_ANOMALY   = 108.9061

EPHEMERIS_TYPE = 0
CLASSIFICATION_TYPE = U
NORAD_CAT_ID   = 12139
ELEMENT_SET_NO = 999
REV_AT_EPOCH   = 31165
BSTAR          = .38681E-3
MEAN_MOTION_DOT = .14696E-3
MEAN_MOTION_DDOT = 0

CCSDS_OMM_VERS = 2.0
CREATION_DATE  = 
ORIGINATOR     = 

OBJECT_NAME    = SL-3 R/B
OBJECT_ID      = 1981-046B
CENTER_NAME    = EARTH
REF_FRAME      = TEME
TIME_SYSTEM    = UTC
MEAN_ELEMENT_THEORY = SGP/SGP4

EPOCH          = 2026-02-17T19:03:25.155360
MEAN_MOTION    = 15.41434439
ECCENTRICITY   = .0020775
INCLINATION    = 81.2341
RA_OF_ASC_NODE = 313.6215
ARG_OF_PERICENTER = 87.8549
MEAN_ANOMALY   = 272.5072

EPHEMERIS_TYPE = 0
CLASSIFICATION_TYPE = U
NORAD_CAT_ID   = 12465
ELEMENT_SET_NO = 999
REV_AT_EPOCH   = 43536
BSTAR          = .29693E-3
MEAN_MOTION_DOT = .1255E-3
MEAN_MOTION_DDOT = 0

CCSDS_OMM_VERS = 2.0
CREATION_DATE  = 
ORIGINATOR     = 

OBJECT_NAME    = SL-3 R/B
OBJECT_ID      = 1981-103B
CENTER_NAME    = EARTH
REF_FRAME      = TEME
TIME_SYSTEM    = UTC
MEAN_ELEMENT_THEORY = SGP/SGP4

EPOCH          = 2026-02-17T18:37:54.367680
MEAN_MOTION    = 15.21125223
ECCENTRICITY   = .0013227
INCLINATION    = 81.1557
RA_OF_ASC_NODE = 236.7912
ARG_OF_PERICENTER = 356.4839
MEAN_ANOMALY   = 3.6297

EPHEMERIS_TYPE = 0
CLASSIFICATION_TYPE = U
NORAD_CAT_ID   = 12904
ELEMENT_SET_NO = 999
REV_AT_EPOCH   = 97020
BSTAR          = .22713E-3
MEAN_MOTION_DOT = .509E-4
MEAN_MOTION_DDOT = 0

CCSDS_OMM_VERS = 2.0
CREATION_DATE  = 
ORIGINATOR     = 

OBJECT_NAME    = SL-3 R/B
OBJECT_ID      = 1982-013B
CENTER_NAME    = EARTH
REF_FRAME      = TEME
TIME_SYSTEM    = UTC
MEAN_ELEMENT_THEORY = SGP/SGP4

EPOCH          = 2026-02-17T19:01:47.517312
MEAN_MOTION    = 15.21786646
ECCENTRICITY   = .002171
INCLINATION    = 81.1755
RA_OF_ASC_NODE = 184.0815
ARG_OF_PERICENTER = 245.8942
MEAN_ANOMALY   = 114.0019

EPHEMERIS_TYPE = 0
CLASSIFICATION_TYPE = U
NORAD_CAT_ID   = 13068
ELEMENT_SET_NO = 999
REV_AT_EPOCH   = 40132
BSTAR          = .2256E-3
MEAN_MOTION_DOT = .5175E-4
MEAN_MOTION_DDOT = 0

CCSDS_OMM_VERS = 2.0
CREATION_DATE  = 
ORIGINATOR     = 

OBJECT_NAME    = SL-3 R/B
OBJECT_ID      = 1982-039B
CENTER_NAME    = EARTH
REF_FRAME      = TEME
TIME_SYSTEM    = UTC
MEAN_ELEMENT_THEORY = SGP/SGP4

EPOCH          = 2026-02-17T18:39:30.161952
MEAN_MOTION    = 15.09962880
ECCENTRICITY   = .0030036
INCLINATION    = 81.1591
RA_OF_ASC_NODE = 238.9159
ARG_OF_PERICENTER = 29.5272
MEAN_ANOMALY   = 330.7641

EPHEMERIS_TYPE = 0
CLASSIFICATION_TYPE = U
NORAD_CAT_ID   = 13154
ELEMENT_SET_NO = 999
REV_AT_EPOCH   = 37863
BSTAR          = .13571E-3
MEAN_MOTION_DOT = .2249E-4
MEAN_MOTION_DDOT = 0

