ATLAS CENTAUR R/B       
1 06155U 72065B   26048.35552112  .00001415  00000+0  19588-3 0  9995
2 06155  35.0017  64.9115 0034016 200.0912 159.8450 14.77625374838253
SL-8 R/B                
1 08459U 75112B   26048.46991148  .00000176  00000+0  66349-4 0  9999
2 08459  74.0592  56.1088 0015037 156.9812 203.2019 14.38192702628966
SL-3 R/B                
1 10114U 77057B   26048.77304614  .00012449  00000+0  26663-3 0  9990
2 10114  97.5737 219.8303 0007340   4.2173 355.9135 15.44897197665254
SEASAT 1                
1 10967U 78064A   26048.64357381  .00000202  00000+0  94997-4 0  9990
2 10967 108.0156  83.4317 0001803 292.2124  67.8830 14.46143728503613
SL-14 R/B               
1 11267U 79011B   26048.66052727  .00000529  00000+0  49682-4 0  9998
2 11267  82.5239 115.5774 0017460 121.9757 238.3163 14.91883405525795
SL-8 R/B                
1 11574U 79089B   26048.63119539  .00000252  00000+0  84141-4 0  9998
2 11574  74.0691 128.1747 0016827 302.9818  56.9721 14.42337983433219
SL-14 R/B               
1 11672U 80005B   26048.72750077  .00000592  00000+0  57456-4 0  9991
2 11672  82.5173 326.1671 0014459 226.3180 133.6842 14.90904001473511
SL-8 R/B                
1 12139U 81003B   26048.66373146  .00014696  00000+0  38681-3 0  9998
2 12139  82.9400 308.5304 0262551 248.4013 108.9061 15.10225754311650
SL-3 R/B                
1 12465U 81046B   26048.79404115  .00012550  00000+0  29693-3 0  9992
2 12465  81.2341 313.6215 0020775  87.8549 272.5072 15.41434439435366
SL-3 R/B                
1 12904U 81103B   26048.77632370  .00005090  00000+0  22713-3 0  9995
2 12904  81.1557 236.7912 0013227 356.4839   3.6297 15.21125223970207
SL-3 R/B                
1 13068U 82013B   26048.79291108  .00005175  00000+0  22560-3 0  9994
2 13068  81.1755 184.0815 0021710 245.8942 114.0019 15.21786646401321
SL-3 R/B                
1 13154U 82039B   26048.77743243  .00002249  00000+0  13571-3 0  9999
2 13154  81.1591 238.9159 0030036  29.5272 330.7641 15.09962880378636
